NORAD_CAT_ID,OBJECT_NAME,OBJECT_TYPE,EPOCH,MEAN_MOTION,ECCENTRICITY,INCLINATION,RA_OF_ASC_NODE,ARG_OF_PERICENTER,MEAN_ANOMALY,BSTAR,MEAN_MOTION_DOT,MEAN_MOTION_DDOT,TLE_LINE0,TLE_LINE1,TLE_LINE2,SEMIMAJOR_AXIS,PERIOD,APOGEE,PERIGEE,DECAYED
51961.0,STARLINK-3689,PAYLOAD,2022-12-30 13:53:03,15.0882435,0.0001403,53.2158,219.5164,106.9335,253.1811,0.00013413,1.847e-05,0.0,0 STARLINK-3689,1 51961U 22025F   22364.57851266  .00001847  00000-0  13413-3 0  9995,2 51961  53.2158 219.5164 0001403 106.9335 253.1811 15.08824350 46413,6917.928000000001,95.439,540.764,538.823,0.0
51961.0,STARLINK-3689,PAYLOAD,2022-12-30 20:14:35,15.08841158,0.0001322,53.2136,218.3274,103.7002,256.4137,0.00018936,2.727e-05,0.0,0 STARLINK-3689,1 51961U 22025F   22364.84346395  .00002727  00000-0  18936-3 0  9990,2 51961  53.2136 218.3274 0001322 103.7002 256.4137 15.08841158 46450,6917.877,95.437,540.656,538.827,0.0
51961.0,STARLINK-3689,PAYLOAD,2022-12-31 07:22:17,15.088499300000002,0.0001329,53.2137,216.2458,102.051,258.0631,0.00045913,7.029e-05,0.0,0 STARLINK-3689,1 51961U 22025F   22365.30714521  .00007029  00000-0  45913-3 0  9997,2 51961  53.2137 216.2458 0001329 102.0510 258.0631 15.08849930 45413,6917.85,95.437,540.634,538.7959999999998,0.0
51961.0,STARLINK-3689,PAYLOAD,2022-12-31 16:54:36,15.08850866,0.0001242,53.2128,214.4613,102.0553,258.0578,0.00050408,7.746e-05,0.0,0 STARLINK-3689,1 51961U 22025F   22365.70458675  .00007746  00000-0  50408-3 0  9997,2 51961  53.2128 214.4613 0001242 102.0553 258.0578 15.08850866 45473,6917.847,95.437,540.571,538.8530000000002,0.0
51961.0,STARLINK-3689,PAYLOAD,2023-01-01 07:13:04,15.0884457,0.0001147,53.2122,211.7855,103.5302,256.5818,-5.345300000000001e-05,-1.139e-05,0.0,0 STARLINK-3689,1 51961U 22025F   23001.30074288 -.00001139  00000-0 -53453-4 0  9991,2 51961  53.2122 211.7855 0001147 103.5302 256.5818 15.08844570 46675,6917.866,95.437,540.525,538.938,0.0
51961.0,STARLINK-3689,PAYLOAD,2023-01-01 13:34:36,15.08838093,0.0001208,53.212,210.5959,103.8377,256.2749,-0.00018568,-3.242e-05,0.0,0 STARLINK-3689,1 51961U 22025F   23001.56570516 -.00003242  00000-0 -18568-3 0  9998,2 51961  53.2120 210.5959 0001208 103.8377 256.2749 15.08838093 45603,6917.886,95.438,540.587,538.9159999999998,0.0
51961.0,STARLINK-3689,PAYLOAD,2023-01-01 19:56:09,15.08837279,0.0001227,53.2124,209.4065,101.5047,258.6083,-9.3223e-05,-1.771e-05,0.0,0 STARLINK-3689,1 51961U 22025F   23001.83066798 -.00001771  00000-0 -93223-4 0  9997,2 51961  53.2124 209.4065 0001227 101.5047 258.6083 15.08837279 45648,6917.889,95.438,540.6030000000002,538.905,0.0
51961.0,STARLINK-3689,PAYLOAD,2023-01-02 13:25:23,15.08845419,0.0001256,53.2127,206.1349,100.2039,259.9095,2.6574e-05,1.35e-06,0.0,0 STARLINK-3689,1 51961U 22025F   23002.55930493  .00000135  00000-0  26574-4 0  9995,2 51961  53.2127 206.1349 0001256 100.2039 259.9095 15.08845419 45753,6917.864000000001,95.437,540.5980000000002,538.86,0.0
51961.0,STARLINK-3689,PAYLOAD,2023-01-02 19:46:56,15.08846399,0.0001252,53.2127,204.9452,100.8004,259.3129,7.874600000000001e-05,9.66e-06,0.0,0 STARLINK-3689,1 51961U 22025F   23002.82426383  .00000966  00000-0  78746-4 0  9993,2 51961  53.2127 204.9452 0001252 100.8004 259.3129 15.08846399 46906,6917.861,95.437,540.592,538.86,0.0
51961.0,STARLINK-3689,PAYLOAD,2023-01-03 13:16:10,15.08839516,0.0001317,53.2152,201.6754,104.2397,255.8742,0.00016694,2.37e-05,0.0,0 STARLINK-3689,1 51961U 22025F   23003.55290428  .00002370  00000-0  16694-3 0  9997,2 51961  53.2152 201.6754 0001317 104.2397 255.8742 15.08839516 45902,6917.882,95.438,540.658,538.836,0.0
51961.0,STARLINK-3689,PAYLOAD,2023-01-03 19:37:44,15.08833464,0.0001337,53.2135,200.4848,100.6483,259.466,6.0605e-05,6.77e-06,0.0,0 STARLINK-3689,1 51961U 22025F   23003.81787119  .00000677  00000-0  60605-4 0  9994,2 51961  53.2135 200.4848 0001337 100.6483 259.4660 15.08833464 47055,6917.9,95.438,540.69,538.84,0.0
51961.0,STARLINK-3689,PAYLOAD,2023-01-03 22:48:30,15.08835217,0.0001361,53.2135,199.8898,100.8532,259.2613,4.6614e-05,4.54e-06,0.0,0 STARLINK-3689,1 51961U 22025F   23003.95034997  .00000454  00000-0  46614-4 0  9995,2 51961  53.2135 199.8898 0001361 100.8532 259.2613 15.08835217 45967,6917.895,95.438,540.702,538.818,0.0
51961.0,STARLINK-3689,PAYLOAD,2023-01-04 19:28:30,15.08845958,0.0001398,53.2134,196.0242,100.6188,259.4962,7.0707e-05,8.38e-06,0.0,0 STARLINK-3689,1 51961U 22025F   23004.81146226  .00000838  00000-0  70707-4 0  9996,2 51961  53.2134 196.0242 0001398 100.6188 259.4962 15.08845958 47204,6917.861999999999,95.437,540.694,538.76,0.0
51961.0,STARLINK-3689,PAYLOAD,2023-01-05 05:00:49,15.08838735,0.0001481,53.215,194.2404,102.0202,258.0956,7.1819000000000015e-06,-1.74e-06,0.0,0 STARLINK-3689,1 51961U 22025F   23005.20890820 -.00000174  00000-0  71819-5 0  9996,2 51961  53.2150 194.2404 0001481 102.0202 258.0956 15.08838735 47267,6917.884,95.438,540.774,538.725,0.0
51961.0,STARLINK-3689,PAYLOAD,2023-01-05 12:57:46,15.08819369,0.0001274999999999,53.2137,192.7523,94.1851,265.9287,-4.4931e-05,-1.002e-05,0.0,0 STARLINK-3689,1 51961U 22025F   23005.54012335 -.00001002  00000-0 -44931-4 0  9996,2 51961  53.2137 192.7523 0001275  94.1851 265.9287 15.08819369 47311,6917.943,95.439,540.69,538.9259999999998,0.0
51961.0,STARLINK-3689,PAYLOAD,2023-01-06 04:51:38,15.08826273,0.0001419,53.214,189.7795,96.3882,263.7272,-9.3971e-06,-4.37e-06,0.0,0 STARLINK-3689,1 51961U 22025F   23006.20252427 -.00000437  00000-0 -93971-5 0  9998,2 51961  53.2140 189.7795 0001419  96.3882 263.7272 15.08826273 47413,6917.922,95.438,540.769,538.806,0.0
51961.0,STARLINK-3689,PAYLOAD,2023-01-06 20:45:29,15.08829385,0.0001355,53.2128,186.8051,91.5601,268.5546,-3.3917e-05,-8.27e-06,0.0,0 STARLINK-3689,1 51961U 22025F   23006.86492394 -.00000827  00000-0 -33917-4 0  9995,2 51961  53.2128 186.8051 0001355  91.5601 268.5546 15.08829385 46409,6917.913000000001,95.438,540.715,538.84,0.0
51961.0,STARLINK-3689,PAYLOAD,2023-01-07 04:42:25,15.08821437,0.000133,53.2129,185.3181,89.0737,271.0407,-5.9774e-05,-1.239e-05,0.0,0 STARLINK-3689,1 51961U 22025F   23007.19613294 -.00001239  00000-0 -59774-4 0  9993,2 51961  53.2129 185.3181 0001330  89.0737 271.0407 15.08821437 46453,6917.937,95.439,540.722,538.882,0.0
51961.0,STARLINK-3689,PAYLOAD,2023-01-07 11:03:58,15.08818751,0.0001181,53.2125,184.128,83.0144,277.0982,0.00014411,2.005e-05,0.0,0 STARLINK-3689,1 51961U 22025F   23007.46109788  .00002005  00000-0  14411-3 0  9999,2 51961  53.2125 184.1280 0001181  83.0144 277.0982 15.08818751 47603,6917.945,95.439,540.627,538.993,0.0
51961.0,STARLINK-3689,PAYLOAD,2023-01-07 14:14:45,15.0882533,0.0001486999999999,53.2126,183.5339,84.6942,275.422,0.00020178,2.924e-05,0.0,0 STARLINK-3689,1 51961U 22025F   23007.59357733  .00002924  00000-0  20178-3 0  9995,2 51961  53.2126 183.5339 0001487  84.6942 275.4220 15.08825330 46511,6917.925,95.438,540.819,538.762,0.0
51961.0,STARLINK-3689,PAYLOAD,2023-01-08 06:08:36,15.088371900000002,0.0001301,53.213,180.5602,87.8322,272.2819,0.00025416,3.759e-05,0.0,0 STARLINK-3689,1 51961U 22025F   23008.25597498  .00003759  00000-0  25416-3 0  9990,2 51961  53.2130 180.5602 0001301  87.8322 272.2819 15.08837190 47728,6917.889,95.438,540.654,538.854,0.0
51961.0,STARLINK-3689,PAYLOAD,2023-01-08 20:27:04,15.08852682,0.0001385999999999,53.2124,177.8835,88.9113,271.2038,0.00049094,7.537e-05,0.0,0 STARLINK-3689,1 51961U 22025F   23008.85213046  .00007537  00000-0  49094-3 0  9996,2 51961  53.2124 177.8835 0001386  88.9113 271.2038 15.08852682 46703,6917.842,95.437,540.665,538.748,0.0
51961.0,STARLINK-3689,PAYLOAD,2023-01-09 05:59:22,15.08858589,0.0001426999999999,53.2122,176.0994,87.9236,272.1919,0.000458,7.012e-05,0.0,0 STARLINK-3689,1 51961U 22025F   23009.24956656  .00007012  00000-0  45800-3 0  9990,2 51961  53.2122 176.0994 0001427  87.9236 272.1919 15.08858589 47878,6917.824000000001,95.436,540.6759999999998,538.701,0.0
51961.0,STARLINK-3689,PAYLOAD,2023-01-09 10:45:31,15.0886141,0.0001378,53.2121,175.207,89.5375,270.5775,0.00042407,6.471e-05,0.0,0 STARLINK-3689,1 51961U 22025F   23009.44828352  .00006471  00000-0  42407-3 0  9991,2 51961  53.2121 175.2070 0001378  89.5375 270.5775 15.08861410 46799,6917.815,95.436,540.633,538.727,0.0
51961.0,STARLINK-3689,PAYLOAD,2023-01-09 17:07:03,15.0886669,0.000136,53.2122,174.0172,90.9789,269.1359,0.00048509,7.446e-05,0.0,0 STARLINK-3689,1 51961U 22025F   23009.71323867  .00007446  00000-0  48509-3 0  9994,2 51961  53.2122 174.0172 0001360  90.9789 269.1359 15.08866690 46838,6917.799,95.436,540.605,538.7230000000002,0.0
51961.0,STARLINK-3689,PAYLOAD,2023-01-10 05:50:08,15.08856515,0.0001402,53.2126,171.6373,102.5548,257.5601,0.00013343,1.837e-05,0.0,0 STARLINK-3689,1 51961U 22025F   23010.24315544  .00001837  00000-0  13343-3 0  9993,2 51961  53.2126 171.6373 0001402 102.5548 257.5601 15.08856515 48027,6917.83,95.437,540.665,538.725,0.0
51961.0,STARLINK-3689,PAYLOAD,2023-01-10 12:11:41,15.08843772,0.0001419999999999,53.2128,170.4482,99.9422,260.1731,-7.980199999999999e-05,-1.558e-05,0.0,0 STARLINK-3689,1 51961U 22025F   23010.50812049 -.00001558  00000-0 -79802-4 0  9999,2 51961  53.2128 170.4482 0001420  99.9422 260.1731 15.08843772 48066,6917.8690000000015,95.437,540.716,538.752,0.0
51961.0,STARLINK-3689,PAYLOAD,2023-01-10 16:57:50,15.08846105,0.0001395,53.2127,169.5562,99.7823,260.3326,-4.5509e-05,-1.012e-05,0.0,0 STARLINK-3689,1 51961U 22025F   23010.70683819 -.00001012  00000-0 -45509-4 0  9994,2 51961  53.2127 169.5562 0001395  99.7823 260.3326 15.08846105 46981,6917.861999999999,95.437,540.692,538.762,0.0
51961.0,STARLINK-3689,PAYLOAD,2023-01-11 13:37:51,15.08842898,0.0001349,53.2134,165.6901,102.2978,257.8165,-5.2484e-05,-1.123e-05,0.0,0 STARLINK-3689,1 51961U 22025F   23011.56796103 -.00001123  00000-0 -52484-4 0  9993,2 51961  53.2134 165.6901 0001349 102.2978 257.8165 15.08842898 48229,6917.871999999999,95.437,540.67,538.803,0.0
